[{"OBJECT_NAME":"STARLINK-5122","OBJECT_ID":"2022-141Y","EPOCH":"2026-03-09T04:33:20.451456","MEAN_MOTION":15.08832639,"ECCENTRICITY":0.00014858,"INCLINATION":53.2185,"RA_OF_ASC_NODE":6.2525,"ARG_OF_PERICENTER":100.9333,"MEAN_ANOMALY":259.1826,"EPHEMERIS_TYPE":0,"CLASSIFICATION_TYPE":"U","NORAD_CAT_ID":54179,"ELEMENT_SET_NO":999,"REV_AT_EPOCH":18578,"BSTAR":-0.00011632371,"MEAN_MOTION_DOT":-2.138e-5,"MEAN_MOTION_DDOT":0},{"OBJECT_NAME":"COSMOS 374 DEB","OBJECT_ID":"1970-089W","EPOCH":"2026-03-09T16:20:12.219936","MEAN_MOTION":13.5280289,"ECCENTRICITY":0.07081767,"INCLINATION":62.9255,"RA_OF_ASC_NODE":204.1769,"ARG_OF_PERICENTER":160.6646,"MEAN_ANOMALY":202.2778,"EPHEMERIS_TYPE":0,"CLASSIFICATION_TYPE":"U","NORAD_CAT_ID":5020,"ELEMENT_SET_NO":999,"REV_AT_EPOCH":66527,"BSTAR":0.0014422969,"MEAN_MOTION_DOT":4.854e-5,"MEAN_MOTION_DDOT":0}]
